[{"OBJECT_NAME":"TIANMU-1 19","OBJECT_ID":"2023-208A","EPOCH":"2026-03-09T22:13:36.801696","MEAN_MOTION":15.2984143,"ECCENTRICITY":0.00039292,"INCLINATION":97.4383,"RA_OF_ASC_NODE":184.9132,"ARG_OF_PERICENTER":316.2611,"MEAN_ANOMALY":43.8317,"EPHEMERIS_TYPE":0,"CLASSIFICATION_TYPE":"U","NORAD_CAT_ID":58660,"ELEMENT_SET_NO":999,"REV_AT_EPOCH":12214,"BSTAR":0.00040995676,"MEAN_MOTION_DOT":0.00011779,"MEAN_MOTION_DDOT":0},{"OBJECT_NAME":"STARLINK-32041","OBJECT_ID":"2024-124V","EPOCH":"2026-03-09T22:32:19.884192","MEAN_MOTION":15.3013352,"ECCENTRICITY":0.00019628,"INCLINATION":53.1606,"RA_OF_ASC_NODE":321.3546,"ARG_OF_PERICENTER":100.2545,"MEAN_ANOMALY":259.8677,"EPHEMERIS_TYPE":0,"CLASSIFICATION_TYPE":"U","NORAD_CAT_ID":60202,"ELEMENT_SET_NO":999,"REV_AT_EPOCH":9553,"BSTAR":-0.00013205099,"MEAN_MOTION_DOT":-4.26e-5,"MEAN_MOTION_DDOT":0}]
